0 THORAD AGENA D DEB
1 27725U 69082LH  13281.31011856  .00004975  00000-0  82254-3 0  5803
2 27725 070.0187 228.6639 0022035 331.1407 180.7907 14.70768577 99388
0 THORAD AGENA D DEB
1 27725U 69082LH  13282.52850814  .00007957  00000-0  13071-2 0  5816
2 27725 070.0185 225.7248 0022071 329.5338 151.7218 14.70793152 99564
0 THORAD AGENA D DEB
1 27725U 69082LH  13283.54820723  .00007526  00000-0  12366-2 0  5824
2 27725 070.0183 223.2648 0022124 328.0984 150.8253 14.70803538 99715
0 THORAD AGENA D DEB
1 27725U 69082LH  13285.16960883  .00006077  00000-0  10006-2 0  5836
2 27725 070.0182 219.3528 0022158 326.0742 095.6648 14.70822354 99951
0 THORAD AGENA D DEB
1 27725U 69082LH  13286.19058106  .00006333  00000-0  10420-2 0  5842
2 27725 070.0185 216.8896 0022178 324.8181 101.4451 14.70834233100106
0 THORAD AGENA D DEB
1 27725U 69082LH  13287.22636287  .00006253  00000-0  10288-2 0  5853
2 27725 070.0188 214.3903 0022181 323.4982 185.7262 14.70843615100254
0 THORAD AGENA D DEB
1 27725U 69082LH  13288.44451396  .00008920  00000-0  14611-2 0  5862
2 27725 070.0193 211.4514 0022230 321.8674 155.7595 14.70863003100430
0 THORAD AGENA D DEB
1 27725U 69082LH  13289.46511693  .00007997  00000-0  13109-2 0  5877
2 27725 070.0195 208.9892 0022296 320.3567 160.0041 14.70879106100581
0 THORAD AGENA D DEB
1 27725U 69082LH  13290.48534988  .00008626  00000-0  14125-2 0  5883
2 27725 070.0194 206.5275 0022306 319.2188 161.9679 14.70892728100736
0 THORAD AGENA D DEB
1 27725U 69082LH  13292.19129903  .00006511  00000-0  10689-2 0  5893
2 27725 070.0192 202.4116 0022287 317.0541 195.0620 14.70915096100985
0 THORAD AGENA D DEB
1 27725U 69082LH  13293.40888082  .00006954  00000-0  11404-2 0  5907
2 27725 070.0187 199.4737 0022319 315.3850 162.4262 14.70928892101162
0 THORAD AGENA D DEB
1 27725U 69082LH  13295.09874079  .00007174  00000-0  11755-2 0  5910
2 27725 070.0183 195.3963 0022353 313.2316 110.5502 14.70946659101416
